Agency,Department,Name,Title,Room Number,Street Address,City,State,Zip Code,Telephone,Fax,Email Address,Website,Online Request Form,Notes
*,Department of Commerce,,FOIA Requester Service Center,,,,,,654.505.2812,,,,,
*,Department of Veterans Affairs,*,*,*,"810 Vermont Avenue, NW",Washington,DC,20420,454.169.4401x5751,(092)177-1697x1427,erin83@gmail.com,http://www.foia.va.gov/,,
*,Department of Agriculture,*,FOIA Officer,*,"1400 Independence Avenue, SW",Washington,DC,*,+1-130-799-8648x112,225.528.2431x06255,psmith@gmail.com,,,*
*,Department of Energy,*,FOIA Officer,,*,*,*,*,9270388511,348-583-3501,paulataylor@yahoo.com,*,*,
*,*,*,FOIA Public Liaison,*,*,*,*,*,(766)567-0673,+1-160-490-5457x63994,,*,https://hudpal.efoia-host.com/palMain.aspx,This office has additional FOIA contact information that can be found by visiting its website.
*,Department of Veterans Affairs,*,*,*,"810 Vermont Avenue, NW",Washington,DC,20420,001-630-810-8650,285-742-3821x5567,strongrachael@hotmail.com,http://www.foia.va.gov/,,
*,Department of Justice,*,FOIA Public Liaison,,,,,,(983)920-2109x869,,,,,
*,Department of Veterans Affairs,,FOIA Requester Service Center,,,,,,+1-310-003-9068x25120,,,,,
*,Department of Homeland Security,,FOIA Requester Service Center,,,,,,001-824-773-9934x04225,,davisjames@hotmail.com,,,
*,Department of Labor ,*,FOIA Public Liaison,,,,,,6559696301,,smithdarrell@yahoo.com,,,
*,Department of Veterans Affairs,*,FOIA Requester Service Center,,,Washington,,,791.145.9842x117,,,,,
*,Department of Defense,*,*,*,*,*,*,*,954.368.2962x972,001-058-263-5649,iconner@hotmail.com,*,,
*,Department of Homeland Security,*,FOIA Public Liaison,,,,,,047.873.5799,,,,,
*,Department of Transportation,*,*,*,*,Washington,DC,*,+1-169-117-0724x9390,8350712969,blake96@yahoo.com,*,,
*,Department of Agriculture,*,FOIA Public Liaison,,,,,,(277)883-0522x12972,+1-521-705-0792x800,,,,
*,Department of Justice,,FOIA Requester Service Center,,,,,,+1-116-877-5827,,,,,
*,Department of Defense,*,*,*,*,*,VA,*,981.922.8169x631,+1-145-498-7290,dchang@hotmail.com,*,,
*,Department of Labor ,,FOIA Requester Service Center,,,,,,001-470-029-5970x3079,,,,,
*,Department of Defense,*,FOIA Public Liaison,,,,,,001-287-754-7938,,nrogers@gmail.com,,,
*,Department of Energy,,FOIA Requester Service Center,,,,,,347-034-1516,,,,,
*,Department of Energy,*,FOIA Officer,*,*,*,*,*,557-307-2342,9033088213,jacob29@hotmail.com,*,,
*,Department of Justice,*,FOIA Public Liaison,,,,,,+1-291-600-6578x6943,,,,,
*,Department of Justice,,FOIA Requester Service Center,,,,,,960.007.5695x406,,,,,
*,*,,FOIA Requester Service Center,,,,,,(109)280-1635x16114,,,,,
*,Department of Defense,,FOIA Requester Service Center,,,,,,001-981-199-3741x577,958.124.4815x948,,,,
*,Department of Labor ,,FOIA Requester Service Center,,,,,,478-401-2357,,,,,
*,Department of Homeland Security,,FOIA Requester Service Center,,,,,,159.907.5574x6386,,,,,
*,Department of Justice,*,FOIA Public Liaison,,,,,,199-991-7645x446,,bowerschristopher@gmail.com,,,
*,Department of Homeland Security,*,FOIA Officer,*,,*,*,*,+1-917-104-5271,486-324-5172x065,williambrooks@hotmail.com,*,*,
*,Department of Defense,*,*,*,*,Washington,DC,*,+1-846-759-9972x373,+1-544-423-2444x68566,michaeldennis@hotmail.com,*,*,
*,Department of Energy,*,FOIA Officer,,*,*,*,*,(941)335-8334x445,933-815-2990,juan35@hotmail.com,*,*,
*,Department of Transportation,,FOIA Requester Service Center,,,,,,298-413-2303x7677,,,,,*
*,Department of Justice,,FOIA Requester Service Center,,,,,,+1-568-034-3639x4277,,,,,
*,Department of Defense,,FOIA Requester Service Center,,,,,,(280)210-4082,,,,,
*,*,,FOIA Requester Service Center,,,,,,503-430-6507,,,,,
*,Department of Defense,*,*,*,*,*,VA,*,078-172-8503x1460,,trodriguez@hotmail.com,*,*,
*,*,*,*,,,,,,,001-739-881-3201x020,bowersnicholas@yahoo.com,*,*,This agency has additional FOIA contact information that can be found by visiting its website.
*,*,*,FOIA Officer,*,*,*,VA,*,001-895-605-0526x308,0951661664,cassidy40@gmail.com,*,http://www.doi.gov/foia/foia-request-form.cfm,This office has additional FOIA contact information that can be found by visiting its website.
*,Department of Health and Human Services,*,*,*,*,*,MD,*,+1-088-962-6556x95167,,dhall@gmail.com,*,*,
*,Department of Health and Human Services,*,*,*,*,*,MD,*,772-166-8611,+1-763-507-8788x89130,,*,*,This office has additional FOIA contact information that can be found by visiting its website.
*,Department of Veterans Affairs,,FOIA Requester Service Center,,,,,,537.829.3335,,,,,
*,Department of Commerce,*,*,*,*,Washington,DC,*,+1-205-457-7407x89701,096.592.1439,chelseablake@hotmail.com,*,,
*,Department of Commerce,,FOIA Requester Service Center,,,,,,(108)150-4059x096,,,,,
*,*,,FOIA Requester Service Center,,,,,,400.649.7995,,,,,
*,Department of Defense,,FOIA Requester Service Center,,,,,,9652797801,,,,,
*,Department of Transportation,*,*,,*,Washington,DC,*,+1-636-577-5787x965,(859)813-8289,mdavidson@yahoo.com,*,,
*,Department of Health and Human Services,*,*,*,*,*,MD,*,910-108-8580x4861,,wilsonvanessa@gmail.com,*,*,
*,Department of Labor ,*,FOIA Public Liaison,,,,,,(941)835-0551x82339,,maciaserika@hotmail.com,,,
*,Department of Homeland Security,,FOIA Requester Service Center,,,,,,293.427.5446x5669,,,,,
*,Department of Agriculture,,FOIA Requester Service Center,,,,,,(105)127-5161x26240,,,,,
*,Department of Defense,,FOIA Requester Service Center,,,,,,286.392.1296x46586,,,,,
*,Department of Defense,,FOIA Requester Service Center,,,,,,+1-620-395-8298x83393,,,,,
*,Department of Justice,*,*,*,*,Washington,DC,20530-0001,845-754-3270,001-836-665-6901x957,,*,http://www.justice.gov/oip/oip-request.html,
*,Department of Justice,*,*,*,*,Washington,DC,*,6940224718,(929)687-9778,padillaevan@yahoo.com,*,,
*,Department of Defense,,FOIA Requester Service Center,,,,,,629.894.9706x6519,,,,,
*,Department of Veterans Affairs,*,*,*,"810 Vermont Avenue, NW",Washington,DC,20420,+1-272-032-7645x40686,(144)530-5765x39441,,http://www.foia.va.gov/,,
*,Department of Energy,*,FOIA Public Liaison,,,,,,001-437-640-5534x4651,,,,,
*,*,*,FOIA Public Liaison,*,*,*,*,,(112)320-2326,,,*,https://hudpal.efoia-host.com/palMain.aspx,This office has additional FOIA contact information that can be found by visiting its website.
*,Department of Veterans Affairs,*,FOIA Public Liaison,,,,,,837.498.6018x1974,,,,,
*,Department of Veterans Affairs,,FOIA Requester Service Center,,,,,,001-783-903-0898x30693,784.800.8998,,,http://www.justice.gov/oip/oip-request.html,
*,Department of Veterans Affairs,,FOIA Public Liaison,,,,,,372-759-3313,,,,,
*,Department of Transportation,*,FOIA Public Liaison,,,,,,539-737-3596x14491,,rosemichelle@gmail.com,,,
*,Department of Defense,*,*,,,,,,888.307.6933x505,,,,,
*,Department of Transportation,*,FOIA Requester Service Center,,,,,,001-887-216-7753,,kristy19@yahoo.com,,,
*,Department of Homeland Security,,FOIA Requester Service Center,,,,,,9398594557,,,,,
*,Department of Commerce,*,*,*,*,Washington,DC,*,859-086-8127,610.819.2563x3077,lisa95@hotmail.com,*,,
*,Department of Defense,*,*,*,*,Washington,*,*,614.116.6817,(849)288-8691x28799,brittanywall@hotmail.com,*,,
*,Department of Labor ,*,FOIA Public Liaison,,,,,,001-144-013-2862x7262,,spenceelizabeth@hotmail.com,,,
*,*,*,FOIA Public Liaison,,,,,,,,,,,
*,Department of Justice,,FOIA Requester Service Center,,,,,,+1-988-096-9243,,,,,
*,*,,FOIA Requester Service Center,,,,,,340-390-4781,,,,,
*,Department of Veterans Affairs,*,FOIA Public Liaison,,,,,,(438)036-6083x40001,,,,,*
*,Department of Justice,*,*,*,*,Washington,DC,*,001-372-832-7996,,margaretwagner@hotmail.com,*,*,
*,*,,FOIA Requester Service Center,,,,,,032-989-0314,813.224.3941,,,,
*,*,,FOIA Requester Service Center,,,,,,,,,,,
*,Department of Health and Human Services,*,*,*,,Washington,DC,*,316.459.0383,,llin@hotmail.com,*,,
*,Department of Homeland Security,*,FOIA Officer,*,*,*,MD,*,+1-296-372-4755x343,368.341.9691,pleonard@yahoo.com,*,,
*,Department of Agriculture,,FOIA Requester Service Center,,*,,,,,,,,,
*,Department of Agriculture,,FOIA Requester Service Center,,,,,,146-017-7524,,robertsbrenda@yahoo.com,,,
*,Department of Justice,*,FOIA Public Liaison,,,,,,+1-325-333-5894x97498,,,,,
*,Department of Agriculture,*,FOIA Public Liaison,,,,,,294.887.7264x9808,,,,,
*,Department of Veterans Affairs,*,FOIA Public Liaison,,,,,,,,,,,
*,Department of Labor ,*,FOIA Officer,*,*,*,MD,*,6248631547,5359707388,hernandezmichele@yahoo.com,*,,This office has additional FOIA contact information that can be found by visiting its website.
*,Department of Defense,,FOIA Requester Service Center,,,,,,001-062-865-2569x3989,,,,,
*,Department of Defense,*,*,*,*,*,*,*,+1-034-589-2160x802,(652)453-8009x8276,kristi44@gmail.com,*,*,
*,Department of Defense,*,*,*,*,*,VA,*,(659)343-7079,001-145-486-5761,hunttrevor@gmail.com,*,,
*,Department of Defense,,FOIA Requester Service Center,,,,,,591.847.7182,,,,,
*,Department of Health and Human Services,*,FOIA Public Liaison,,,,,,242.236.8829x9564,,,,,
*,Department of Energy,*,FOIA Public Liaison,,,,,,(425)710-7789x9360,,,,,
*,Department of Commerce,*,FOIA Public Liaison,,,,,,523-925-2304x02872,,danielcunningham@hotmail.com,,,
*,Department of Energy,*,FOIA Public Liaison,,,,,,5247361683,,amberbrady@gmail.com,,,
*,Department of Veterans Affairs,*,FOIA Public Liaison,,,,DC,,001-562-286-3674x45212,,,,,*
*,Department of Veterans Affairs,,FOIA Requester Service Center,,,,,,,,tamaramcbride@gmail.com,,,
*,Department of Health and Human Services,*,FOIA Public Liaison,,,,,,+1-494-001-2845x4826,,,,,
*,Department of Justice,*,FOIA Public Liaison,,,,,,+1-003-699-4707x216,461-531-4711,,,,
*,*,*,FOIA Public Liaison,,,,,,(451)563-6185x6789,,,,https://www.treasury.gov/foia/pages/gofoia.aspx,
*,Department of Transportation,*,FOIA Public Liaison,,,,,,334-819-1065,,richardsjennifer@gmail.com,,,
*,Department of Homeland Security,,FOIA Requester Service Center,,,,,,001-801-376-4731,,zmcdonald@hotmail.com,,,
*,Department of Labor ,,FOIA Requester Service Center,,,,,,(695)218-1031,,tparsons@gmail.com,,,
*,Department of Agriculture,*,FOIA Public Liaison,,,,,,185.627.6956x273,,,,,
*,Department of Defense,*,*,*,*,Washington,DC,*,(069)426-8455x909,(817)418-6478,andrew94@hotmail.com,*,*,
*,Department of Defense,,FOIA Requester Service Center,,,,,,+1-526-028-1979,,,,,
*,Department of Justice,,FOIA Requester Service Center,,,,,,303.209.5118x8632,,,,,
*,Department of Energy,,FOIA Requester Service Center,,,,,,(557)290-9738x44667,,,,,
*,*,*,FOIA Public Liaison,,,,,,001-034-445-2645x2683,,,,,
*,Department of Energy,,FOIA Requester Service Center,,,,,,+1-980-735-4728x692,,,,,
*,Department of Justice,*,FOIA Public Liaison,,,,,,270.055.3233x797,,,*,,
*,Department of Energy,*,FOIA Officer,,*,*,*,*,(203)258-3546x533,(212)930-9347x6926,garypham@yahoo.com,*,*,
*,Department of Justice,,FOIA Requester Service Center,,,,,,(247)540-9241x96554,,,,,
*,Department of Defense,,*,,,,VA,,,,,,,
*,Department of Labor ,*,*,*,"200 Constitution Avenue, NW",Washington,DC,*,(904)151-9344x35235,892-107-7277,jonesthomas@hotmail.com,*,,This office has additional FOIA contact information that can be found by visiting its website.
*,Department of Defense,,FOIA Requester Service Center,,,,,,+1-046-753-2052,,,,,*
*,Department of Energy,,FOIA Requester Service Center,,,,,,172.974.6831x02817,,,,,
*,*,*,FOIA Public Liaison,,,,,,749-269-2654x68999,,,,,
*,Department of Energy,,FOIA Requester Service Center,,,,,,(527)880-3099x347,,,,,
*,Department of Commerce,*,FOIA Public Liaison,,,,,,047.347.6376,,,,,
*,Department of Justice,,FOIA Requester Service Center,,,,,,048.413.0129,,,,,
*,*,,FOIA Requester Service Center,,,,,,2512782481,,,,,
*,Department of Defense,*,*,*,*,*,VA,*,405.319.3057x398,394-518-2226x22716,kimberly31@gmail.com,*,*,
*,Department of Energy,*,FOIA Officer,*,*,*,*,*,150-644-8808,074.470.5386x5329,fsmith@gmail.com,*,*,
*,Department of Energy,,FOIA Requester Service Center,,,,,,001-578-419-5185x541,,,,,
*,Department of Defense,,FOIA Requester Service Center,,"810 Vermont Avenue, NW",,,,429.958.7237,,,,,
*,Department of Commerce,*,*,,*,*,VA,*,895.648.7705x63228,(704)596-9454x12962,bguerrero@gmail.com,*,,
*,Department of Transportation,*,FOIA Public Liaison,,,,,*,(570)405-8256,,farleysteven@yahoo.com,,,
*,Department of Veterans Affairs,*,*,*,"810 Vermont Avenue, NW",Washington,DC,20420,(383)506-0406,(825)913-6561,kpoole@yahoo.com,http://www.foia.va.gov/,,
*,Department of Energy,,FOIA Requester Service Center,,,,,,(828)903-2614x56993,,,,,
*,Department of Agriculture,*,FOIA Public Liaison,*,"1400 Independence Avenue, SW",Washington,DC,*,(214)702-0047x349,472-999-0088x2499,cynthiarhodes@yahoo.com,,,
*,Department of Transportation,*,*,*,*,Washington,DC,*,136.273.9435x434,+1-438-687-4003x2767,megan62@gmail.com,*,*,This office has additional FOIA contact information that can be found by visiting its website.
*,Department of Health and Human Services,,FOIA Requester Service Center,,,,,,001-162-683-9844x249,,,,,
*,Department of Justice,*,FOIA Public Liaison,,,,,,(008)386-2349x0278,,,,,
*,*,,FOIA Requester Service Center,,,,,,898-531-0014,,,,,
*,Department of Veterans Affairs,*,FOIA Public Liaison,,,,,,844.652.9516,,snydershawn@yahoo.com,,,
*,Department of Transportation,*,FOIA Officer,*,*,Washington,DC,*,(528)013-7836x014,(072)750-5961,,*,*,
*,Department of Defense,*,FOIA Public Liaison,,,,,,6479966261,(040)126-1074x824,justin84@hotmail.com,,,
*,Department of Agriculture,*,FOIA Public Liaison,*,*,Washington,DC,*,001-103-313-2137x7815,(650)698-6058x9128,steven18@hotmail.com,,,
*,Department of Agriculture,*,*,*,,Washington,DC,*,(031)828-2704x945,272-392-3782,jeffreymorris@gmail.com,*,,
*,Department of Agriculture,,*,*,*,*,MD,*,(070)753-8169x26135,728.777.2832x89793,anneanderson@gmail.com,*,*,
*,Department of Veterans Affairs,*,*,*,"810 Vermont Avenue, NW",Washington,DC,20420,,960.616.2065x845,,http://www.foia.va.gov/,,
*,Department of Justice,*,FOIA Public Liaison,,,,,,4611088053,,,,,
*,Department of Justice,*,FOIA Public Liaison,,,,,,940-243-2205x650,,,,,
*,Department of Commerce,,FOIA Requester Service Center,,,,,,475-574-5618x306,,,,,
*,Department of Transportation,,FOIA Requester Service Center,,,,,,+1-342-127-8475x43948,369-689-8611,,,,
*,Department of Agriculture,*,*,*,*,*,VA,*,302.766.2029x70613,508.279.0052x1211,gregoryoneal@hotmail.com,*,,This office has additional FOIA contact information that can be found by visiting its website.
*,Department of Justice,*,FOIA Public Liaison,,,,,,001-462-729-3083x34215,,,,,
*,*,*,*,,,,,,(062)755-2657,,,,,
*,Department of Labor ,*,FOIA Public Liaison,,,,,,100-335-6550,,christinajohnson@hotmail.com,,,
*,Department of Transportation,*,FOIA Public Liaison,,,,,,422.671.1437x753,,antonio08@hotmail.com,,,
*,Department of Labor ,,FOIA Requester Service Center,,,Washington,,,,,,,,*
*,Department of Transportation,*,FOIA Public Liaison,,,,,,195.922.1424x47535,,shannon54@yahoo.com,,,
*,Department of Veterans Affairs,*,*,*,"810 Vermont Avenue, NW",Washington,DC,20420,129-695-0126x2981,(761)913-1676,,http://www.foia.va.gov/,,
*,Department of Defense,*,*,*,*,*,MD,*,(905)265-0592x83679,(230)086-1133x2879,william47@gmail.com,*,,
*,Department of Defense,*,*,*,*,*,VA,*,001-645-465-9894,800.323.6215x569,jbell@yahoo.com,*,*,
*,Department of Labor ,,FOIA Requester Service Center,,,,,,(933)158-2987,,,*,,
*,Department of Homeland Security,*,FOIA Officer,*,*,Washington,DC,*,7205510403,001-806-765-6179,mia95@yahoo.com,*,*,
*,Department of Justice,*,*,*,*,Washington,DC,*,(914)943-7917x22786,(584)823-2190x3440,veronica11@yahoo.com,*,,
*,Department of Justice,,FOIA Public Liaison,,,,,,001-883-661-4440,,,,,
*,Department of Defense,*,*,*,*,*,MD,*,+1-215-735-5749x16641,4128208350,aaronpadilla@hotmail.com,*,,
*,Department of Transportation,,FOIA Requester Service Center,,,,,,+1-199-806-9930x437,,,,,
*,Department of Defense,,FOIA Requester Service Center,,,,,,+1-482-089-1932x217,,,,,
*,Department of Homeland Security,*,FOIA Public Liaison,,,,,,+1-469-054-0163x71866,,,,,
*,*,*,FOIA Officer,*,,Washington,DC,*,(569)375-5109x482,019.347.4249x089,aaronharris@yahoo.com,*,http://www.doi.gov/foia/foia-request-form.cfm,
*,*,*,*,*,*,Washington,DC,*,(470)656-0517,314-651-9092x2008,,*,https://www.treasury.gov/foia/pages/gofoia.aspx,
*,Department of Health and Human Services,*,FOIA Public Liaison,,,,,,555-444-2245x269,,,,,
*,Department of Homeland Security,*,*,*,*,Washington,DC,*,(751)274-8221x2784,001-946-514-1957x090,robert00@hotmail.com,*,,
*,*,,FOIA Requester Service Center,,,,,,001-573-126-3008x2643,,,,,
*,Department of Defense,*,FOIA Public Liaison,,,,,,001-157-465-1448x466,,sherri16@yahoo.com,,,
*,Department of Veterans Affairs,*,FOIA Public Liaison,,,,,,243.539.4487x28290,,,,,
*,Department of Agriculture,*,FOIA Requester Service Center,*,*,Washington,DC,*,583-881-7607x2089,145-044-9044,perrygabriel@hotmail.com,*,,
*,Department of Energy,*,FOIA Public Liaison,,,,,,660.091.6050x326,,,,*,
*,Department of Justice,,FOIA Requester Service Center,,,,,,(129)394-5167x238,,,,,
*,Department of Homeland Security,,FOIA Requester Service Center,,,,,,653-827-4736,,tryan@hotmail.com,,,
*,Department of Defense,*,FOIA Public Liaison,,,,,,350-217-0749,,patrickcharlotte@hotmail.com,,,
*,Department of Labor ,,FOIA Requester Service Center,,,,,,449.014.2697x33603,,,,,
*,Department of Justice,*,FOIA Public Liaison,,,,,,920.932.4379x73959,,,,,
*,Department of Labor ,*,*,*,"200 Constitution Avenue, NW",Washington,DC,*,+1-259-442-5516x302,154-159-1156x680,,*,,This office has additional FOIA contact information that can be found by visiting its website.
*,Department of Veterans Affairs,*,FOIA Requester Service Center,,,,,,,,,,,
*,*,*,FOIA Officer,*,*,*,VA,*,238-676-0216x942,764-785-4908x44537,elliottbryan@yahoo.com,*,http://www.doi.gov/foia/foia-request-form.cfm,This office has additional FOIA contact information that can be found by visiting its website.
*,Department of Defense,*,FOIA Public Liaison,,,,,,118.478.0314,,wilkinsonpamela@yahoo.com,,,
*,Department of Labor ,*,FOIA Public Liaison,,,,,,001-774-007-0184x95114,,sarah36@yahoo.com,,,
*,Department of Justice,*,FOIA Public Liaison,,,,,,+1-529-835-3129x540,,,,,
*,*,,FOIA Requester Service Center,,,,,,483-754-5089x3239,,,,,
*,Department of Justice,*,FOIA Public Liaison,,,,,,501-997-4186x6881,,,,,
*,Department of Energy,*,FOIA Officer,*,*,*,*,*,8759635196,733-713-5262,wilsondennis@yahoo.com,*,*,
*,Department of Commerce,*,FOIA Public Liaison,,,,,,415-902-7840x461,,,,,
*,Department of Agriculture,*,FOIA Public Liaison,,,Washington,DC,*,999-107-1436,170.207.3990,leeamy@yahoo.com,,,
*,Department of Veterans Affairs,,FOIA Requester Service Center,,,,,,118.405.4885x9905,,,,,
*,Department of Agriculture,*,FOIA Officer,,"1400 Independence Avenue, SW",Washington,DC,*,(175)362-4067,087.797.1145,jonathanjones@gmail.com,*,,
*,Department of Defense,,FOIA Requester Service Center,,,,,,(108)278-7680,,,,,
*,Department of Homeland Security,*,FOIA Officer,*,*,Washington,DC,*,124.001.7746x80453,857-601-9636,csanchez@yahoo.com,*,,
*,Department of Defense,*,*,*,*,*,VA,*,(714)657-6081x126,(862)575-6388,,*,*,This agency has additional FOIA contact information that can be found by visiting its website.
*,*,*,*,*,*,Washington,DC,*,+1-845-115-4796x8003,(739)817-9214x7177,,,,
*,Department of Homeland Security,*,FOIA Officer,,,Washington,DC,*,+1-224-813-1837,001-269-600-6836x621,randy02@hotmail.com,*,,
*,Department of Labor ,,FOIA Requester Service Center,,,,,,237.759.1662x5456,,michael32@yahoo.com,,,
*,Department of Justice,,FOIA Requester Service Center,,,,,,775-062-4893,,,,,
*,Department of Veterans Affairs,*,FOIA Public Liaison,,,,,,387-099-7487x07400,,,,,
*,Department of Homeland Security,*,FOIA Public Liaison,,,,,,+1-494-367-9421x543,(768)137-8263,riversshelby@gmail.com,,,
*,Department of Homeland Security,*,FOIA Public Liaison,,,,,,386.203.9546,878.007.0273x08541,johnsonkrystal@gmail.com,,,
*,*,*,FOIA Public Liaison,,,,,,+1-138-795-9265x96023,,,,,
*,*,,FOIA Requester Service Center,,,,,,,,andrewsmichael@yahoo.com,,,
*,Department of Transportation,*,*,*,*,Washington,DC,*,001-689-725-7416x196,001.406.2786x881,larsonjustin@yahoo.com,*,,
*,Department of Veterans Affairs,*,*,*,,Washington,DC,*,572-574-9223x3345,349.087.0778,qnavarro@yahoo.com,*,,This office has additional FOIA contact information that can be found by visiting its website.
*,Department of Justice,*,*,,*,*,VA,*,,001-008-639-7916,wesley12@gmail.com,*,,
*,Department of Homeland Security,*,FOIA Requester Service Center,,,,,,(704)382-2453x1950,,,,,
*,Department of Defense,,FOIA Requester Service Center,,,,,,(118)739-3667,,michelle86@hotmail.com,,,
*,Department of Energy,*,FOIA Public Liaison,,,,,,(523)106-1753,,,,,
*,Department of Justice,,FOIA Requester Service Center,*,,,,,225-337-3043,,,,,
*,Department of Justice,*,*,*,*,Washington,DC,*,+1-146-359-6916x994,,usanchez@hotmail.com,*,,
*,Department of Agriculture,,FOIA Requester Service Center,,,,,,001-036-349-2870,,waltersdavid@hotmail.com,,,
*,Department of Veterans Affairs,*,FOIA Public Liaison,,,,,,,,,,,
*,Department of Transportation,,FOIA Requester Service Center,,,,,,459.675.7247,,,,,
*,*,*,FOIA Public Liaison,,,,,,986-304-6331,,,,,
*,Department of Veterans Affairs,,FOIA Requester Service Center,,,,,,191-396-2289x1960,,,,,
*,Department of Defense,*,FOIA Public Liaison,,,,,,(202)908-3503x2452,222-751-3966x0389,ruizlauren@gmail.com,,,
*,Department of Veterans Affairs,*,*,*,"810 Vermont Avenue, NW",Washington,DC,20420,001-928-739-8942x2690,790.354.9567x6487,,http://www.foia.va.gov/,,
*,Department of Justice,*,*,,,Washington,DC,20530-0001,191.018.8244x0317,,lcampos@gmail.com,*,,
*,Department of Labor ,*,FOIA Public Liaison,,,,,,(287)346-5603x38251,,harrisonkatie@hotmail.com,,,
*,*,*,*,*,*,Washington,DC,*,523.361.9739,,,*,https://www.treasury.gov/foia/pages/gofoia.aspx,
*,Department of Transportation,*,*,*,*,Washington,DC,*,+1-353-126-5131x5482,+1-342-307-1528x76762,mjenkins@gmail.com,*,,
*,Department of Justice,*,FOIA Public Liaison,,,,,,740.127.7122x8622,,,,,
*,*,*,FOIA Public Liaison,,,,,,001-078-558-9968,,,,,
*,Department of Veterans Affairs,*,*,*,"810 Vermont Avenue, NW",Washington,DC,20420,001-988-556-1374,362.220.3437x3005,,http://www.foia.va.gov/,,
*,Department of Health and Human Services,,FOIA Requester Service Center,,,,,,(531)339-1223x4215,,,,,
*,Department of Homeland Security,,FOIA Public Liaison,,,,DC,,+1-349-761-3081x7900,,arthur91@hotmail.com,,,
*,Department of Commerce,,FOIA Requester Service Center,,,,,,,,,,,
*,Department of Justice,*,FOIA Public Liaison,,,,,,398.432.0708,,,,,
*,Department of Labor ,,FOIA Requester Service Center,,,,,,001-890-891-3483x90155,,jane76@gmail.com,,,
*,Department of Labor ,*,FOIA Public Liaison,,,,,,799-074-1474,,guzmanchristopher@yahoo.com,,,
*,Department of Transportation,*,FOIA Officer,*,*,Washington,DC,*,001-209-604-8539x1370,001-791-325-9137x040,jimenezjamie@yahoo.com,*,,
*,*,*,FOIA Public Liaison,,,,,*,001-415-719-0348x43131,,,,,
*,Department of Defense,*,FOIA Public Liaison,,,,,,5772188100,,xjones@hotmail.com,,,
*,Department of Defense,*,FOIA Public Liaison,,,,,,930.478.1731,,jgraham@hotmail.com,,,
*,Department of Veterans Affairs,*,FOIA Public Liaison,,,,,,757.750.0229x780,,,,,
*,Department of Health and Human Services,*,FOIA Public Liaison,,,,,,951.082.6699x94289,,,,,
*,Department of Energy,*,FOIA Public Liaison,,,,,,709.615.0220x8918,,,,,
*,Department of Energy,,FOIA Officer,*,*,*,*,*,+1-599-373-0654x70193,370.713.6667,simpsonwesley@gmail.com,*,*,
*,Department of Agriculture,*,FOIA Requester Service Center,*,"1400 Independence Avenue, SW",Washington,DC,*,980-729-2415x406,,debra58@yahoo.com,,,
*,Department of Defense,,FOIA Requester Service Center,,,,,,606.155.3112x1404,,,,,
*,Department of Defense,*,*,*,*,*,*,*,8862727605,(215)679-8060x4016,danielsjoseph@gmail.com,*,,
*,Department of Veterans Affairs,*,*,*,"810 Vermont Avenue, NW",Washington,DC,20420,,(134)428-6896x9522,,http://www.foia.va.gov/,,
*,Department of Agriculture,,FOIA Requester Service Center,,,,,,001-136-903-3717x51965,,,,,
*,*,*,FOIA Public Liaison,*,*,*,*,*,918-327-0736x52791,+1-362-339-2937x3513,,*,https://hudpal.efoia-host.com/palMain.aspx,This office has additional FOIA contact information that can be found by visiting its website.
*,Department of Agriculture,*,FOIA Public Liaison,*,"1400 Independence Avenue, SW",Washington,MD,*,980.476.9847,,,,,
*,Department of Health and Human Services,,FOIA Requester Service Center,,,,,,(234)070-8437x4352,,,http://www.foia.va.gov/,,
*,Department of Justice,,FOIA Requester Service Center,,,,,,(227)285-9198x25164,,,,,
*,Department of Veterans Affairs,*,*,*,"810 Vermont Avenue, NW",Washington,,20420,001-010-980-7060x976,(356)152-4528x2525,,http://www.foia.va.gov/,,
*,Department of Justice,,FOIA Requester Service Center,,,,,,+1-107-524-0004,,,,,
*,Department of Defense,,FOIA Requester Service Center,,,,,,2703671277,,hcain@yahoo.com,,,
*,Department of Defense,,FOIA Requester Service Center,,,,,,(050)282-6633,,,,,
*,Department of Homeland Security,*,*,,,,,,+1-564-384-0266x76054,,,,,
*,Department of Energy,*,FOIA Public Liaison,,,,DC,,9279591569,,,,,
*,Department of Justice,*,FOIA Public Liaison,,,,,,001-174-496-3447,,,,,
*,Department of Transportation,*,FOIA Requester Service Center,,,,,,822-819-6593x75772,,,,,
*,Department of Justice,*,*,*,*,Washington,,20530-0001,+1-146-622-5631x9884,+1-617-429-9187x7966,brett60@yahoo.com,*,http://www.justice.gov/oip/oip-request.html,*
*,Department of Health and Human Services,*,FOIA Officer,,,Washington,DC,*,212.247.4500,,,*,,
*,*,,FOIA Requester Service Center,,,,,,747-946-0406x69194,,,,,
*,Department of Labor ,*,*,*,"200 Constitution Avenue, NW",Washington,DC,*,748.810.7201x19484,(991)927-5498,ashley11@yahoo.com,*,,
*,Department of Labor ,*,*,*,"200 Constitution Avenue, NW",Washington,DC,*,001-195-264-6237x8772,(001)842-6671,susan62@hotmail.com,*,,This office has additional FOIA contact information that can be found by visiting its website.
*,Department of Agriculture,*,*,*,*,*,VA,*,644-732-2450,(646)021-8362x6529,umoss@gmail.com,*,,
*,Department of Agriculture,*,FOIA Public Liaison,*,,*,*,,(434)659-8456,,johnsontracy@yahoo.com,,,
*,*,*,FOIA Officer,*,*,*,*,*,493-428-3314x5326,,nancyshelton@hotmail.com,*,http://www.doi.gov/foia/foia-request-form.cfm,
*,Department of Labor ,*,*,*,"200 Constitution Avenue, NW",Washington,DC,*,791.481.8788,481-799-3015x783,,*,http://www.justice.gov/oip/oip-request.html,
*,Department of Agriculture,*,*,*,"1400 Independence Avenue, SW",Washington,DC,*,2329240494,001-088-016-8430x7244,blanchardcraig@gmail.com,*,,*
*,Department of Justice,,FOIA Requester Service Center,,,,,,+1-748-963-3656x40154,,,,,
*,Department of Homeland Security,,FOIA Officer,,*,Washington,DC,*,6183597746,4844647487,jamesalvarado@gmail.com,*,,
*,Department of Labor ,*,*,*,"200 Constitution Avenue, NW",Washington,DC,*,275.956.8482x037,4864603330,cory43@yahoo.com,*,,
*,Department of Energy,,FOIA Requester Service Center,,,,,,(634)004-1093x6933,,,,,
*,*,*,FOIA Requester Service Center,,,,,,7267860958,,,,,
*,Department of Transportation,,FOIA Requester Service Center,,,,,,+1-568-213-5206x6914,,,,,
*,Department of Labor ,,FOIA Requester Service Center,,,,,,783-736-5408,,,,,
*,Department of Health and Human Services,*,FOIA Public Liaison,,,,,,1117159928,,,,,
*,Department of Veterans Affairs,,FOIA Requester Service Center,,,,,,682-873-7657x96377,,,,,
*,Department of Health and Human Services,*,FOIA Officer,*,*,Washington,DC,*,001-805-593-2808,075.523.2226x8661,troyswanson@gmail.com,*,*,
*,Department of Homeland Security,*,FOIA Public Liaison,,,,,,039-196-4914,,,,,
*,Department of Justice,*,FOIA Public Liaison,,,,,,(688)645-5812x30013,,,,,
*,Department of Justice,*,FOIA Officer,*,*,Washington,DC,*,001-341-154-3616x3801,,sharonyates@hotmail.com,,,
*,Department of Defense,*,FOIA Public Liaison,,,,,,+1-762-399-2681,,taterobert@gmail.com,,,
*,Department of Defense,*,FOIA Public Liaison,,,,,,(642)702-9735x501,,brandon71@yahoo.com,,,
*,Department of Veterans Affairs,*,*,*,"810 Vermont Avenue, NW",Washington,DC,20420,(930)515-1625x43496,6161970381,,http://www.foia.va.gov/,,
*,Department of Transportation,*,FOIA Public Liaison,,,,,,(133)761-8877x198,,scottandrew@yahoo.com,,,
*,Department of Justice,,FOIA Requester Service Center,,,,,,660.559.4289x376,,,,,
*,Department of Agriculture,*,FOIA Requester Service Center,*,,*,*,,2826208293,,wrightgabriel@gmail.com,,,
*,Department of Defense,*,FOIA Officer,*,,*,*,*,+1-647-911-4988x401,+1-680-720-6975x821,jeffreyblair@gmail.com,*,*,
*,Department of Veterans Affairs,,FOIA Requester Service Center,,,,,,,,,,,
*,Department of Agriculture,*,FOIA Public Liaison,*,*,*,MD,*,,,ilynch@hotmail.com,,,
*,Department of Justice,*,*,*,*,Washington,DC,*,6303903922,234.673.6967x850,copelandelizabeth@yahoo.com,*,*,
*,Department of Defense,*,*,*,*,*,VA,*,(661)903-2231x99161,(571)490-9169,kathleen67@hotmail.com,*,,
*,Department of Labor ,*,*,*,*,*,DC,*,4401817302,314-284-0391x9356,austin79@hotmail.com,*,,
*,Department of Homeland Security,*,FOIA Public Liaison,,,,,,+1-777-258-9960x1966,,,,,
*,Department of Veterans Affairs,*,*,*,"810 Vermont Avenue, NW",Washington,DC,20420,001-869-794-5703x0539,+1-509-236-5468x290,,http://www.foia.va.gov/,,
*,Department of Justice,*,*,*,*,Washington,DC,20530-0001,+1-244-251-2917,,moorerobert@hotmail.com,*,,
*,Department of Health and Human Services,*,FOIA Public Liaison,,,,,,961-402-1748x390,763.664.7894,,,,
*,Department of Defense,*,FOIA Public Liaison,,,*,,,806-491-6036,460.499.1514x667,,,,
*,Department of Defense,*,FOIA Public Liaison,,,,,,+1-091-877-2412x95607,,brad35@yahoo.com,,,
*,Department of Veterans Affairs,,FOIA Public Liaison,,,,,,(865)968-7318x098,,,,,
*,Department of Veterans Affairs,*,*,*,"810 Vermont Avenue, NW",Washington,DC,20420,412.572.0447,(387)975-3679x4896,fgray@yahoo.com,http://www.foia.va.gov/,,
*,Department of Energy,*,FOIA Public Liaison,,,,,,(372)397-8576x78333,,,*,,
*,Department of Health and Human Services,*,FOIA Officer,*,*,*,MD,*,416-121-8260x437,001-394-344-4716,,*,,This office has additional FOIA contact information that can be found by visiting its website.
*,Department of Justice,*,FOIA Public Liaison,,,,,,+1-215-577-3224x61382,,,,,
*,Department of Defense,,FOIA Requester Service Center,,,,,,668-507-6897,,,,,
*,Department of Defense,*,*,*,*,*,VA,*,362-219-4105x0303,001-064-912-4085x99602,karensantos@yahoo.com,*,*,
*,Department of Agriculture,*,*,*,"1400 Independence Avenue, SW",Washington,DC,*,114-312-8708x12149,276.420.5117x1445,vegadaisy@hotmail.com,*,,
*,Department of Health and Human Services,,FOIA Requester Service Center,,,,,,(386)536-0960,,,,,
*,Department of Commerce,*,FOIA Public Liaison,,,,,,537-034-9147x797,,,,,
*,Department of Justice,*,FOIA Public Liaison,,,,,,962-373-9293x90274,,,,,
*,Department of Justice,*,*,,,,,,506.658.2166,,,,,
*,Department of Veterans Affairs,*,FOIA Public Liaison,,,,,,001-937-918-0628x4411,474.975.3702x1604,,,,
*,Department of Agriculture,,FOIA Requester Service Center,,,,,,(484)527-9576x0412,,,,,
*,Department of Transportation,*,FOIA Public Liaison,,,,,,9616927978,,hbeck@yahoo.com,,,
*,Department of Health and Human Services,,FOIA Requester Service Center,,,,,,+1-529-441-0342x36448,,,,,
*,Department of Transportation,*,FOIA Requester Service Center,,,,,,182-213-2521,,,,,
*,Department of Labor ,*,FOIA Public Liaison,,,,,,595-314-7229x7416,,pwilson@hotmail.com,,,
*,Department of Justice,,FOIA Requester Service Center,,,,,,(482)108-9247x3886,,,,,
*,Department of Health and Human Services,*,FOIA Requester Service Center,*,*,*,MD,*,924-328-8521,001-804-839-6435x4951,gmcdonald@hotmail.com,*,,
*,Department of Veterans Affairs,,FOIA Requester Service Center,,,,,,+1-422-359-1970x8021,,,,,
*,Department of Agriculture,*,FOIA Requester Service Center,,,,,,211.471.3688x652,001-805-709-7254,reedphilip@gmail.com,,,
*,Department of Agriculture,*,FOIA Public Liaison,*,"1400 Independence Avenue, SW",Washington,DC,*,+1-598-496-1857x90953,,glenn89@hotmail.com,,,
*,Department of Agriculture,*,FOIA Officer,*,*,*,MD,*,028.801.2848x0366,001-196-087-0707x6872,arowe@hotmail.com,*,*,This office has additional FOIA contact information that can be found by visiting its website.
*,Department of Veterans Affairs,,FOIA Requester Service Center,,,,,,(749)277-4833,,,,,
*,*,,FOIA Requester Service Center,,,,,,001-769-058-8289,,,,,
*,Department of Justice,*,*,*,*,Washington,DC,20530-0001,677-260-5693x7964,001-500-820-4245x36546,,*,http://www.justice.gov/oip/oip-request.html,
*,*,*,*,,*,Washington,DC,*,268-077-0156,+1-316-243-3169x506,cooleyjames@gmail.com,*,*,
*,Department of Energy,,FOIA Requester Service Center,,,,,,+1-195-758-8740x98067,,,,,
*,Department of Justice,*,FOIA Public Liaison,,,,,,101.295.3829,,,,,
*,Department of Transportation,*,*,*,*,Washington,DC,*,+1-062-907-0813x044,(515)570-0786,walkerjane@yahoo.com,*,,
*,Department of Justice,*,FOIA Public Liaison,,,,,,973-727-0462x65026,,,,,
*,Department of Veterans Affairs,*,*,*,"810 Vermont Avenue, NW",Washington,DC,20420,001-612-811-0717,706-226-2036x78372,,http://www.foia.va.gov/,,
*,Department of Labor ,*,*,*,"200 Constitution Avenue, NW",Washington,DC,*,653.991.4236x218,+1-544-410-6308,sarah30@hotmail.com,*,,This office has additional FOIA contact information that can be found by visiting its website.
*,Department of Health and Human Services,*,*,,,,,,(527)175-1981x96068,,,,,
*,Department of Energy,*,FOIA Requester Service Center,,,,,,758.185.7245x971,,,,,
*,Department of Defense,*,*,*,*,*,VA,*,9491477625,147-229-0308x15759,,*,*,
*,Department of Veterans Affairs,*,FOIA Public Liaison,,,,,,,,,,,
*,Department of Justice,*,FOIA Public Liaison,,,,,,396.075.3951x350,,,,,
*,*,*,*,*,*,*,*,*,(902)253-6976x45564,433.919.5634,,,,
*,Department of Agriculture,*,*,*,*,Washington,DC,*,+1-409-744-5565x96467,911.789.4348x98032,brendacarpenter@gmail.com,*,*,
*,Department of Justice,,*,,,,,,657.067.6118x3288,,,,,
*,Department of Energy,*,FOIA Officer,*,*,*,*,*,863-243-1149x2091,+1-000-443-3636,riverasharon@yahoo.com,*,*,
*,Department of Defense,*,FOIA Public Liaison,,,,,,001-583-034-7806x92390,,micheal21@gmail.com,,,*
*,*,,FOIA Requester Service Center,,,,,,+1-423-069-5976,,,,,
*,Department of Homeland Security,,FOIA Requester Service Center,,,,,,001-322-093-5180x016,,,,,
*,Department of Justice,,FOIA Requester Service Center,,,,,,142.063.8655x301,,,,,
*,Department of Justice,*,FOIA Public Liaison,,,,,,514-809-9858,,,,,
*,Department of Justice,*,*,*,*,Washington,DC,,327-714-6070x1891,261.348.0116x24277,meyerbrenda@hotmail.com,*,,
*,Department of Justice,,FOIA Requester Service Center,,,,,,+1-304-964-3486x702,,,,,
*,Department of Justice,*,FOIA Public Liaison,,,,,,+1-746-895-5417x7613,,,,,
*,*,*,FOIA Public Liaison,,,,,,096-622-0188x193,,,,,
*,Department of Justice,*,FOIA Public Liaison,,,,,,(686)289-1068,+1-997-868-8914,,,,
*,Department of Justice,*,FOIA Public Liaison,,,,,,+1-426-147-4719x85958,,,,,
*,Department of Commerce,*,FOIA Public Liaison,,,,,,577-342-2641,,,,,
*,Department of Agriculture,*,FOIA Officer,*,"1400 Independence Avenue, SW",Washington,MD,*,(722)664-8142x13590,(852)753-4862,caitlin39@hotmail.com,*,,*
*,Department of Defense,*,*,*,*,*,*,*,(733)106-5239,7601882131,tylerbrown@gmail.com,*,,
*,Department of Homeland Security,,FOIA Requester Service Center,,,,,,+1-502-309-8050,,,,,
*,Department of Commerce,*,FOIA Public Liaison,,,,,,(051)256-7591x369,,,,,
*,Department of Defense,*,FOIA Public Liaison,,,,,,001-935-264-9818,,stonejeffrey@gmail.com,,,
*,Department of Defense,*,FOIA Public Liaison,,,,,,001-919-352-8400x445,536-110-9699x56230,jstone@yahoo.com,,,
*,Department of Commerce,,FOIA Requester Service Center,,,,,20420,+1-895-284-4409x93412,,,,,
*,Department of Labor ,,FOIA Requester Service Center,,,,,,211-543-4304x2115,,,,,
*,Department of Commerce,*,*,,*,*,VA,*,956-504-3621,(571)722-8887x942,jeff81@gmail.com,*,,
*,Department of Energy,*,FOIA Officer,*,*,*,*,*,081.689.3361x57896,+1-308-024-8398x0221,xavierboyd@hotmail.com,*,*,
*,*,*,*,*,*,Washington,MD,*,588.756.7264x51786,8117155105,,*,*,
*,Department of Justice,*,*,,*,Washington,DC,20530-0001,289.742.2323x717,141.694.8991,hopkinstimothy@hotmail.com,*,,
*,Department of Defense,,FOIA Requester Service Center,,,,,,+1-411-242-8482x546,,,,,
*,Department of Defense,*,*,*,,*,MD,*,955-103-2989x646,(374)431-6504,,*,*,
*,Department of Energy,,FOIA Requester Service Center,,,,,,(739)744-8398,,,,,
*,Department of Justice,*,FOIA Public Liaison,,,,,,+1-996-698-7535x07271,,,,,
*,*,,FOIA Requester Service Center,,,,,,7314498241,,,,,
*,Department of Health and Human Services,,FOIA Requester Service Center,,,,,,325-188-4731x7658,,,,,*
*,Department of Labor ,*,*,*,"200 Constitution Avenue, NW",Washington,DC,*,915.327.5241x794,001-039-256-3692x3144,ysmith@yahoo.com,*,,This office has additional FOIA contact information that can be found by visiting its website.
*,Department of Defense,*,FOIA Public Liaison,,,,,,,(439)986-7188x3682,beverlysmith@hotmail.com,,,
*,Department of Agriculture,*,FOIA Officer,*,"1400 Independence Avenue, SW",Washington,DC,*,001-819-015-1085x61410,,fmiller@hotmail.com,*,,
*,Department of Justice,*,*,*,*,Washington,DC,20530-0001,+1-977-945-4085x994,001-413-427-7970x50992,iwhite@yahoo.com,*,,
*,Department of Energy,*,FOIA Public Liaison,,*,,,,(015)469-4895x4637,,,,,
*,Department of Commerce,*,FOIA Officer,*,*,*,MD,*,001-732-768-2740x4578,436.030.1328,sara17@gmail.com,*,,
*,Department of Transportation,*,*,*,*,Washington,MD,*,198-854-1246x7983,013-106-2959,tami91@hotmail.com,*,,
*,Department of Defense,*,FOIA Public Liaison,,,,,,001-848-403-5605x58677,,morrismark@yahoo.com,,,
*,*,*,FOIA Public Liaison,,,,,,9142908746,,,,,
*,Department of Commerce,*,FOIA Officer,*,*,Washington,DC,*,(958)632-7768x8748,001-189-424-2356x002,derrick18@hotmail.com,*,,
*,Department of Justice,*,*,*,*,Washington,DC,*,039-355-0015x8912,(189)659-4376,nathanmurray@gmail.com,*,,
*,Department of Health and Human Services,*,FOIA Officer,*,*,*,MD,*,(127)992-2412x62411,+1-771-862-8680x1588,,*,,This office has additional FOIA contact information that can be found by visiting its website.
*,Department of Commerce,,FOIA Requester Service Center,,,,,,(618)099-1928x27232,,,,,
*,*,*,FOIA Officer,*,*,Washington,DC,*,001-940-339-7968x347,,stevenpadilla@gmail.com,*,http://www.doi.gov/foia/foia-request-form.cfm,
*,Department of Agriculture,*,FOIA Public Liaison,,,,,,+1-007-971-6111,,,,,
*,Department of Defense,*,FOIA Public Liaison,*,,,,,4410205514,,jessica84@hotmail.com,,,
*,Department of Veterans Affairs,,FOIA Requester Service Center,,,,,,298-721-7469x950,,,,,
*,Department of Defense,*,*,*,*,Washington,DC,*,014.227.1148x831,902.126.1506x8559,grahamfernando@gmail.com,*,,
*,Department of Commerce,,FOIA Requester Service Center,,,,,,+1-427-708-2466x5038,,,,,
*,Department of Energy,,FOIA Requester Service Center,,,,,,906.657.1989,,,,,
*,Department of Transportation,,FOIA Requester Service Center,,,,,,+1-952-828-0746x47143,,,,,
*,Department of Veterans Affairs,,FOIA Requester Service Center,,,,,,+1-311-427-2033x531,,,,,
*,Department of Energy,*,FOIA Officer,,*,*,*,*,001-553-967-6625,+1-466-217-6403x36681,zsmith@yahoo.com,*,http://www.doi.gov/foia/foia-request-form.cfm,
*,Department of Justice,,FOIA Requester Service Center,,,,,,686-660-9219,,,,,
*,Department of Labor ,,FOIA Public Liaison,,,,,,272-218-9722x387,,fbaker@hotmail.com,,,
*,Department of Health and Human Services,*,*,*,*,*,MD,*,182.595.7681x754,(267)587-4510x34804,,*,,This office has additional FOIA contact information that can be found by visiting its website.
*,*,*,FOIA Public Liaison,,,,,,148-834-9747,(188)260-3234x3820,,,,
*,Department of Justice,,FOIA Requester Service Center,*,,,,,9265210016,,,,,
*,Department of Defense,*,FOIA Public Liaison,,,,,,787-153-1866x5520,,dvaughan@gmail.com,,,
*,Department of Justice,,FOIA Requester Service Center,,,,,,001-477-848-1887x231,,,,,
*,Department of Commerce,,FOIA Requester Service Center,,,,,,415-103-3734,,,,,
*,Department of Commerce,*,*,*,,Washington,DC,*,001-552-594-8338,+1-537-882-7785,taylorjeffrey@yahoo.com,*,,
*,Department of Justice,*,*,*,*,Washington,DC,20530-0001,577.313.5722x8399,+1-297-105-4425,imoore@yahoo.com,*,,
*,Department of Veterans Affairs,*,*,*,*,Washington,DC,*,(941)651-9594x066,9655457743,ahenson@gmail.com,http://www.foia.va.gov/,,
*,Department of Justice,,FOIA Requester Service Center,,,,,,001-189-220-7124x85156,(216)115-6723x45074,,,,
*,*,*,FOIA Public Liaison,,,,,,(292)957-6553x6031,,,,,
*,Department of Agriculture,,FOIA Requester Service Center,*,,,,,(236)838-2712,,,,,
*,Department of Commerce,*,FOIA Public Liaison,,,,,,001-373-304-9570x62121,,schultzjoshua@gmail.com,,,
*,Department of Veterans Affairs,*,FOIA Public Liaison,,,,,,401.165.6258,,,,,
*,Department of Transportation,*,FOIA Public Liaison,,,,,,001-805-262-6422x7774,,kathymartinez@gmail.com,,,
*,*,*,FOIA Public Liaison,,,,,,(068)849-9470x886,,scottwatson@yahoo.com,,,
*,Department of Veterans Affairs,*,*,*,"810 Vermont Avenue, NW",Washington,DC,20420,(308)570-9959,685-800-7712,jessica24@gmail.com,http://www.foia.va.gov/,,This office has additional FOIA contact information that can be found by visiting its website.
*,Department of Veterans Affairs,*,FOIA Public Liaison,,,,,,,,,,,
*,Department of Energy,*,FOIA Officer,*,*,*,*,*,427.742.1392x1954,001-975-433-1236x755,ddouglas@yahoo.com,*,,
*,Department of Energy,,FOIA Requester Service Center,,,,,,681-814-5868x73390,,,,,
*,*,*,*,*,*,Washington,DC,*,6524590156,(569)583-2080x306,nathanfisher@hotmail.com,*,https://www.treasury.gov/foia/pages/gofoia.aspx,
*,Department of Defense,*,FOIA Public Liaison,,,,,,452.591.6325x0180,,,,,
*,Department of Agriculture,*,FOIA Requester Service Center,*,"1400 Independence Avenue, SW",Washington,DC,*,940-335-0903x84872,,curtis02@yahoo.com,,,
*,Department of Labor ,*,FOIA Public Liaison,,,,,,(552)694-5137x58588,,szuniga@gmail.com,,,
*,Department of Labor ,*,FOIA Officer,*,*,Washington,DC,*,001-928-758-3259,001-123-637-1497x3489,james81@yahoo.com,*,*,This office has additional FOIA contact information that can be found by visiting its website.
*,Department of Justice,*,*,,*,*,VA,*,+1-243-647-2074,(982)275-6844x5812,norman48@hotmail.com,*,,
*,Department of Transportation,,FOIA Requester Service Center,,,,,,(970)254-8158x879,,,,,
*,*,*,*,*,*,Washington,DC,*,185-314-0017x597,284-766-9313,,*,https://hudpal.efoia-host.com/palMain.aspx,This agency has additional FOIA contact information that can be found by visiting its website.
*,Department of Transportation,*,FOIA Public Liaison,,,,,,388.682.3888,,bflores@hotmail.com,,,
*,Department of Agriculture,*,FOIA Requester Service Center,,,,,,+1-524-512-6188x07898,884.743.0098,victorialeonard@gmail.com,,,*
*,*,*,FOIA Public Liaison,*,*,*,*,*,(609)142-7503x9502,001-457-653-2648,,*,https://hudpal.efoia-host.com/palMain.aspx,This office has additional FOIA contact information that can be found by visiting its website.
*,*,*,*,,*,*,*,*,+1-125-691-7614x02878,107.062.7637x99390,,*,https://hudpal.efoia-host.com/palMain.aspx,This office has additional FOIA contact information that can be found by visiting its website.
*,Department of Justice,,FOIA Requester Service Center,,,,,,448.875.9846,,,,,
*,Department of Homeland Security,*,FOIA Public Liaison,,,,,,390.557.5819,,,,,
*,Department of Homeland Security,,FOIA Requester Service Center,,,,,,+1-368-860-2117x3856,,,,,
*,*,*,FOIA Public Liaison,,,,,,+1-240-837-5838x38225,,,,,
*,Department of Agriculture,,FOIA Requester Service Center,,,,,,179.430.4154x514,753-010-2977x20565,rhondapatterson@hotmail.com,,,
*,Department of Defense,*,FOIA Public Liaison,,,,,,(750)751-6892x471,,croberts@hotmail.com,,,
*,Department of Agriculture,*,FOIA Officer,*,"1400 Independence Avenue, SW",Washington,DC,*,+1-168-370-1816x905,869.327.6514,douglasgeorge@yahoo.com,*,,
*,Department of Homeland Security,*,FOIA Officer,*,*,Washington,DC,*,+1-212-183-0057x9521,805-367-8826,marcgrant@gmail.com,*,*,
*,Department of Health and Human Services,*,FOIA Officer,*,*,Washington,DC,*,(958)693-3486,440.987.7203x07164,,*,http://www.justice.gov/oip/oip-request.html,
*,Department of Labor ,,FOIA Requester Service Center,,,,DC,,+1-176-612-3378,,chelsey68@hotmail.com,,,
*,Department of Agriculture,,FOIA Requester Service Center,,,,,,173-154-5027x980,,andrea54@hotmail.com,,,
*,Department of Justice,*,FOIA Public Liaison,,,,,,964-532-9781x372,,,,,
*,Department of Defense,*,FOIA Public Liaison,,,,,*,001-945-648-3914,,evanstommy@yahoo.com,,,
*,Department of Homeland Security,*,FOIA Public Liaison,,,,,,833-643-9653,,,,,
*,Department of Homeland Security,,FOIA Public Liaison,,,,,,906.828.6905x22197,,,,,
*,Department of Veterans Affairs,*,FOIA Public Liaison,,,,,,,,,,,
*,Department of Veterans Affairs,,FOIA Requester Service Center,,,,,,001-305-090-5797x77470,,,,,
*,Department of Energy,*,FOIA Public Liaison,,,,,,622-217-8389x0329,,,,,
*,Department of Commerce,*,FOIA Officer,*,*,Washington,DC,*,001-698-322-1786x0492,239.491.4377,adrianwilson@yahoo.com,*,*,
*,*,,FOIA Requester Service Center,,,,,,868-845-3839x5606,603-607-2573x04885,,http://www.foia.va.gov/,,
*,Department of Labor ,,FOIA Requester Service Center,,,,,,763-986-1382x50411,,thomaschristian@gmail.com,,,
*,Department of Commerce,*,FOIA Public Liaison,,,,,,(352)085-8200x853,,,,,
*,Department of Justice,*,*,*,*,Washington,DC,*,563.472.4640x293,,mathewskrista@hotmail.com,*,,
*,Department of Veterans Affairs,,FOIA Requester Service Center,,,,,,650.130.9045,,,,,
*,Department of Veterans Affairs,*,*,*,"810 Vermont Avenue, NW",Washington,DC,20420,001-356-575-5982x658,+1-420-859-2186x90859,,http://www.foia.va.gov/,,
*,Department of Energy,,FOIA Requester Service Center,,,,,,(606)284-3059x78811,,,,,
*,Department of Veterans Affairs,,FOIA Requester Service Center,,,,,,(131)648-6630x39783,,,,,
*,Department of Justice,*,*,*,*,Washington,DC,*,(361)595-4025,,mkent@hotmail.com,*,,
*,*,*,FOIA Public Liaison,*,*,*,*,*,4492989303,(474)408-9501,,*,https://hudpal.efoia-host.com/palMain.aspx,This office has additional FOIA contact information that can be found by visiting its website.
*,Department of Defense,*,*,*,*,*,VA,*,0013796501,8916159422,mcastro@yahoo.com,*,*,
*,Department of Defense,,FOIA Requester Service Center,,,,,,(332)935-0668x561,,,,,
*,Department of Labor ,*,FOIA Public Liaison,,,,,,(744)182-4801x76637,,james03@yahoo.com,,,
*,*,*,*,,*,*,*,*,705.463.1150x9462,167-993-8859x19313,,,,
*,Department of Veterans Affairs,,FOIA Requester Service Center,,*,,,,001-062-401-2595x536,,,,https://www.treasury.gov/foia/pages/gofoia.aspx,
*,Department of Homeland Security,*,FOIA Public Liaison,,,,,,056-987-0474,,,,,
*,*,*,FOIA Public Liaison,,*,*,*,*,+1-370-813-1164x86853,+1-452-939-9700x9491,,*,https://hudpal.efoia-host.com/palMain.aspx,This office has additional FOIA contact information that can be found by visiting its website.
*,*,*,*,*,*,*,VA,*,001-511-255-1294x1208,435-540-0437x215,,*,https://www.treasury.gov/foia/pages/gofoia.aspx,
*,Department of Justice,*,FOIA Public Liaison,,,,,,001-772-456-5920x70047,,,,,
*,Department of Labor ,*,*,*,"200 Constitution Avenue, NW",Washington,DC,*,210-222-8503x091,906.221.2931x9946,loripatel@gmail.com,*,,
*,Department of Veterans Affairs,*,FOIA Public Liaison,,,,,,+1-744-220-2441x8692,,,,,
*,Department of Agriculture,,FOIA Requester Service Center,,,,,,3976035548,+1-774-673-3612x860,conradcathy@hotmail.com,,,*
*,Department of Veterans Affairs,,FOIA Requester Service Center,,,,,,460.820.2638,,,,,
*,Department of Justice,*,*,*,*,Washington,DC,20530-0001,059-042-5845x90999,376.910.0775x53485,moransteven@hotmail.com,*,,
*,Department of Transportation,*,FOIA Public Liaison,,,,,,724-176-0226x25130,001-991-806-3163,gordonzachary@hotmail.com,,,
*,Department of Energy,*,FOIA Officer,*,*,*,*,*,001-627-469-4409x2549,,esandoval@gmail.com,*,*,
*,Department of Health and Human Services,*,FOIA Officer,*,*,*,*,*,6912147397,(696)789-1807,,,,
*,Department of Agriculture,*,*,*,"1400 Independence Avenue, SW",Washington,DC,*,387.984.0805,495.954.1367x50270,traci20@gmail.com,*,,
*,Department of Justice,,FOIA Requester Service Center,,,,,,314-828-8877,,,,,
*,Department of Defense,*,*,*,*,*,*,*,+1-850-888-9807x6561,001-447-358-2269x544,jessica03@yahoo.com,*,*,
*,Department of Agriculture,*,FOIA Requester Service Center,,*,Washington,DC,*,897-599-1182,001-696-193-4440x577,dmiller@yahoo.com,,,
*,Department of Energy,*,*,,,,,,001-874-700-0967x888,,heather54@gmail.com,,,
*,Department of Commerce,,FOIA Requester Service Center,,,,,,(904)384-6622x48894,,,,,
*,Department of Agriculture,*,FOIA Requester Service Center,*,"1400 Independence Avenue, SW",Washington,DC,*,+1-719-263-5711x1516,,,,,
*,Department of Justice,*,*,*,*,Washington,DC,*,+1-554-503-0656x882,936-184-2347x5875,,*,http://www.justice.gov/oip/oip-request.html,
*,*,*,FOIA Public Liaison,,,,,,007.597.2592,6201695678,,,,
*,Department of Commerce,*,FOIA Public Liaison,,,,,,061.097.3583x037,,,,,
*,Department of Transportation,*,FOIA Public Liaison,,,,,,(714)987-3380,,daniel42@hotmail.com,,,
*,*,*,FOIA Public Liaison,,*,,,,059.068.5050x1998,,,,,
*,Department of Justice,,FOIA Requester Service Center,,,,,,103.007.1817,,,,,
*,*,*,*,*,*,Washington,DC,*,001-092-200-2274,700-850-0057,kelly59@gmail.com,*,https://www.treasury.gov/foia/pages/gofoia.aspx,
*,Department of Health and Human Services,,FOIA Requester Service Center,,,,,,329-878-8298x7944,,,,,
*,Department of Transportation,*,FOIA Public Liaison,,,,,,301.670.0077x9711,,heatherduffy@hotmail.com,,,
*,Department of Agriculture,*,FOIA Officer,*,*,Washington,DC,*,260-612-6689x7135,+1-894-219-0407x19800,rrichardson@yahoo.com,,,
*,Department of Energy,*,FOIA Officer,*,*,Washington,DC,*,339-505-0392,660.796.3214,lgarcia@yahoo.com,*,*,
*,Department of Justice,*,*,*,*,Washington,DC,20530-0001,260-113-3187x322,(719)366-2729,,*,http://www.justice.gov/oip/oip-request.html,*
*,Department of Agriculture,*,FOIA Public Liaison,*,,*,*,,5368041528,,melissathompson@yahoo.com,,,
*,Department of Labor ,*,FOIA Public Liaison,,,,,,+1-731-886-8029,,travis11@gmail.com,,,
*,Department of Justice,*,FOIA Public Liaison,*,,,,,001-313-174-5198x74338,,,,,
*,Department of Energy,*,FOIA Public Liaison,,,,,,615.664.3982x709,,,,,
*,Department of Agriculture,*,*,*,"1400 Independence Avenue, SW",Washington,DC,*,001-104-729-7884x47216,(367)074-4672x297,hrubio@hotmail.com,*,,
*,Department of Agriculture,*,FOIA Public Liaison,,,,,,935-091-9038x56514,,kevinhernandez@yahoo.com,,,
*,Department of Transportation,*,*,*,*,Washington,DC,*,130.853.5722x9483,+1-045-203-0295x499,figueroadenise@yahoo.com,*,,
*,*,*,*,*,*,*,*,*,923.250.3326x60533,600.359.9341x26280,,,,
*,*,*,FOIA Public Liaison,,,,,,4832632370,,,,,
*,Department of Homeland Security,*,FOIA Officer,*,*,*,*,*,678.295.0286x79173,980.071.5052x9509,james73@yahoo.com,*,,This office has additional FOIA contact information that can be found by visiting its website.
*,Department of Justice,*,*,*,*,Washington,DC,*,481-385-4656x098,307-989-2674x47050,josephsharp@gmail.com,*,,
*,*,*,FOIA Public Liaison,,,,,,678-426-7668x9294,,,,,
*,Department of Homeland Security,,FOIA Officer,*,*,Washington,DC,*,+1-109-667-1916x89439,(603)125-0311x164,crawfordwendy@hotmail.com,*,*,
*,Department of Energy,*,FOIA Public Liaison,,,,,,5700728186,,mjefferson@yahoo.com,,,
*,Department of Commerce,,FOIA Requester Service Center,,,,,,2980961208,,,,,
*,Department of Defense,*,FOIA Officer,*,*,Washington,DC,*,265.563.9326,535-960-0969,johnsrachel@yahoo.com,*,http://www.doi.gov/foia/foia-request-form.cfm,
*,Department of Justice,*,FOIA Public Liaison,,,,,,+1-823-881-1265x8717,,,,,
*,Department of Agriculture,,FOIA Requester Service Center,,,,,,725.463.9009,468.328.3291,svaughn@yahoo.com,*,,
*,Department of Veterans Affairs,,FOIA Requester Service Center,,,,,,122-816-3115x627,,,,,
*,Department of Homeland Security,*,FOIA Officer,*,*,Washington,DC,*,437-424-7079,(076)536-3202,phill@gmail.com,*,,
*,Department of Homeland Security,,FOIA Public Liaison,,,,,,001-425-597-7826x4001,389.404.9729,ghernandez@yahoo.com,,,
*,Department of Justice,*,FOIA Public Liaison,,,,,,590-644-3121x515,,,,,
*,Department of Health and Human Services,,FOIA Requester Service Center,,,,,,001-636-226-9108x4016,,,,,
*,Department of Veterans Affairs,*,FOIA Public Liaison,,,,,,469.755.5147,,,,,
*,*,*,FOIA Public Liaison,*,*,Washington,DC,*,2096449361,,pmartinez@hotmail.com,*,http://www.doi.gov/foia/foia-request-form.cfm,This office has additional FOIA contact information that can be found by visiting its website.
*,Department of Homeland Security,*,FOIA Public Liaison,,,,,,566.873.5673x90870,,,,,
*,Department of Agriculture,*,FOIA Public Liaison,*,*,Washington,DC,*,194-723-8411x19785,001-023-286-9566x711,ljones@yahoo.com,*,,
*,Department of Energy,*,FOIA Officer,*,*,*,*,*,+1-469-061-1930,0099769797,christophersloan@hotmail.com,*,*,
*,Department of Homeland Security,,FOIA Requester Service Center,,,,,,+1-959-062-1111x51038,,,,,
*,Department of Justice,*,FOIA Public Liaison,,,,,,+1-085-610-3975x523,,,,,
*,Department of Health and Human Services,*,*,,,,,,745-740-9430x0737,,,,,
*,*,*,FOIA Public Liaison,,,,,,(616)455-3482x137,,,,,
*,Department of Commerce,*,FOIA Officer,*,,*,MD,*,875-193-8470x023,001-166-463-7409x055,swillis@yahoo.com,*,,
*,*,*,FOIA Public Liaison,*,*,*,*,*,046-233-5003x09967,282.573.8350x409,,*,https://hudpal.efoia-host.com/palMain.aspx,This office has additional FOIA contact information that can be found by visiting its website.
*,Department of Labor ,*,*,*,*,Washington,DC,*,(681)886-5739x13593,+1-690-267-8287x36916,,*,,
*,*,*,FOIA Officer,*,*,*,VA,*,(762)968-0572x052,922.463.7445x8445,,*,http://www.doi.gov/foia/foia-request-form.cfm,This office has additional FOIA contact information that can be found by visiting its website.
*,Department of Commerce,,FOIA Requester Service Center,,,,,,285-695-4198,,,,,
*,Department of Justice,*,FOIA Public Liaison,,,,,,+1-610-561-3791x0429,,,,,
*,Department of Commerce,*,FOIA Public Liaison,,,,,,(312)255-9188x3369,,,,,
*,Department of Energy,*,FOIA Officer,,*,*,*,*,940.775.0410x390,053.207.6010,ngarcia@gmail.com,,,
*,*,*,FOIA Officer,*,*,*,*,*,586-557-0363x0008,323.474.1321x435,kellyblake@yahoo.com,*,http://www.doi.gov/foia/foia-request-form.cfm,This office has additional FOIA contact information that can be found by visiting its website.
*,Department of Defense,*,FOIA Public Liaison,,,*,,,001-174-992-1477x245,,,,,
*,Department of Veterans Affairs,*,FOIA Public Liaison,,,,,,,,,,,
*,Department of Labor ,,FOIA Requester Service Center,,,,,,2442092757,,,,,
*,Department of Defense,*,*,*,*,*,*,*,(734)873-6733,123-686-8129,rnewman@gmail.com,*,*,
*,Department of Veterans Affairs,,FOIA Public Liaison,,,,,,+1-355-271-6948x407,,,,,
*,Department of Homeland Security,,FOIA Public Liaison,,,,,,368-060-3471x397,,,,,
*,Department of Justice,*,FOIA Public Liaison,,,,,,521.063.1932x8615,,,,,
*,Department of Energy,,FOIA Public Liaison,,,,,,029-179-4255,7491796215,,,,
*,*,*,FOIA Public Liaison,,,,,,001-101-828-3366,,,,,
*,Department of Justice,*,*,*,*,Washington,DC,*,001-871-288-8827x6589,001-268-778-1467,billyhumphrey@yahoo.com,*,,
*,Department of Defense,*,*,*,*,*,VA,*,(364)290-6696x32721,(731)292-8326,hmiller@yahoo.com,*,,
*,Department of Justice,*,*,*,*,Washington,DC,20530-0001,001-339-849-5031,,jacksontimothy@yahoo.com,,,
*,*,*,FOIA Public Liaison,*,*,*,*,*,041-884-7461,867-890-9033x7578,,,https://www.treasury.gov/foia/pages/gofoia.aspx,
*,Department of Veterans Affairs,*,*,*,"810 Vermont Avenue, NW",Washington,DC,20420,078.737.7499x32419,206.797.1264x8096,,http://www.foia.va.gov/,,
*,*,*,FOIA Public Liaison,,,,,,(568)055-6647x467,6957495317,,,,
*,Department of Justice,,FOIA Requester Service Center,,,,,,304-928-1794,,,,,
*,Department of Homeland Security,*,*,,,Washington,DC,*,001-409-480-9872x2169,510-461-9071,ybrown@hotmail.com,*,,
*,Department of Energy,*,FOIA Public Liaison,,,,,,001-467-424-4409x6214,,,,,
*,Department of Defense,,FOIA Requester Service Center,,,,,,,,,,,
*,Department of Defense,,FOIA Requester Service Center,*,,Washington,,,8886363580,,,,,
*,Department of Defense,*,FOIA Public Liaison,,*,,,,001-096-021-4599,,fosternoah@hotmail.com,,,
*,*,*,FOIA Officer,*,*,Washington,DC,*,001-162-300-7375x561,001-821-565-5731x691,vegazachary@gmail.com,*,http://www.doi.gov/foia/foia-request-form.cfm,This office has additional FOIA contact information that can be found by visiting its website.
*,Department of Veterans Affairs,,FOIA Requester Service Center,,,,,,001-455-890-2837,,,,,
*,Department of Veterans Affairs,,FOIA Requester Service Center,,,,,,+1-157-995-9358x995,,,,,
*,Department of Veterans Affairs,,FOIA Requester Service Center,,,,,,001-543-505-7309,,,,https://www.treasury.gov/foia/pages/gofoia.aspx,
*,Department of Veterans Affairs,*,*,*,"810 Vermont Avenue, NW",Washington,DC,20420,(800)969-8838x72922,(753)774-1842,,http://www.foia.va.gov/,,
*,Department of Defense,,FOIA Requester Service Center,,,,,,901-416-0780,4893892200,,,,
*,Department of Commerce,*,FOIA Public Liaison,,,,,,(316)792-7985x10269,,sellersstephanie@hotmail.com,,,
*,Department of Veterans Affairs,*,*,*,"810 Vermont Avenue, NW",Washington,DC,20420,466-620-0888,497-121-3803,,http://www.foia.va.gov/,,
*,Department of Energy,,FOIA Requester Service Center,,*,,,,+1-461-840-3147x7648,,pvazquez@yahoo.com,,,
*,*,*,*,*,*,*,*,*,(428)225-4486x896,+1-397-017-2342x8257,,*,,This office has additional FOIA contact information that can be found by visiting its website.
*,Department of Commerce,,FOIA Requester Service Center,,,,,,+1-867-799-4629x93704,,,,,
*,Department of Veterans Affairs,,FOIA Requester Service Center,,,,,,961-407-7739x07988,,,,,
*,Department of Transportation,*,*,*,*,Washington,DC,*,5322936396,082.018.4637,davischristopher@gmail.com,*,http://www.justice.gov/oip/oip-request.html,
*,Department of Transportation,*,FOIA Officer,*,*,Washington,DC,*,416-508-4528x499,001-161-331-6218x84387,ftorres@yahoo.com,*,,
*,Department of Justice,,FOIA Requester Service Center,,,,,,257-689-2629,,,,,
*,Department of Energy,*,FOIA Public Liaison,,,,,,165-698-1898,,,,,
*,Department of Justice,*,*,*,*,*,VA,*,964-435-6046,(776)371-7543x323,nelsonjeremy@yahoo.com,*,,
*,Department of Veterans Affairs,*,*,*,"810 Vermont Avenue, NW",Washington,DC,20420,+1-201-794-4924,+1-501-185-1712x51068,burchbrian@gmail.com,http://www.foia.va.gov/,,
*,Department of Defense,*,*,*,*,*,VA,*,136-518-0813x7100,+1-663-461-7845x0110,lvaldez@yahoo.com,*,,
*,Department of Veterans Affairs,,FOIA Public Liaison,,,,,,+1-247-604-3500x84782,,,,,
*,Department of Veterans Affairs,*,*,*,"810 Vermont Avenue, NW",Washington,DC,20420,304.800.6286,5897853868,,http://www.foia.va.gov/,,
*,Department of Commerce,,FOIA Requester Service Center,,,,,,001-458-499-0419x66390,,,,,
*,Department of Justice,*,*,*,*,Washington,DC,*,+1-197-373-6710x45259,,moranbrett@hotmail.com,*,,
*,*,,FOIA Requester Service Center,,,,,,(208)536-4037,,,,,
*,Department of Labor ,,FOIA Requester Service Center,,,,,,001-062-501-8610x268,,stevensdustin@hotmail.com,,,
*,Department of Agriculture,*,FOIA Public Liaison,*,"1400 Independence Avenue, SW",Washington,DC,*,+1-616-370-5743,4102374854,heatherray@yahoo.com,,,*
*,Department of Transportation,*,*,*,*,Washington,DC,*,514-032-5808x9351,915-329-5890,patrickdunn@gmail.com,*,,
*,Department of Labor ,*,FOIA Officer,*,"200 Constitution Avenue, NW",Washington,DC,*,,823-855-0771,meyertanya@yahoo.com,*,,This office has additional FOIA contact information that can be found by visiting its website.
*,Department of Defense,*,FOIA Public Liaison,,,,,,001-465-985-1991,(010)128-5556x96023,jamessandoval@gmail.com,*,*,
*,Department of Defense,,FOIA Requester Service Center,,,,,,(214)453-7571,,campbellandrea@hotmail.com,,,
*,Department of Energy,,FOIA Officer,*,*,*,*,*,001-962-259-5216x4444,725.385.0352,susan01@hotmail.com,*,*,
*,Department of Agriculture,,FOIA Requester Service Center,,,,,,408.814.0754,,craigwalsh@gmail.com,*,,
*,*,*,*,*,*,Washington,DC,*,(202)965-7261x7519,538-458-6658,james50@yahoo.com,*,*,This agency has additional FOIA contact information that can be found by visiting its website.
*,Department of Defense,*,*,*,*,*,DC,*,423-751-5477x8029,433.641.9187,rwalters@hotmail.com,*,*,
*,Department of Justice,,FOIA Requester Service Center,,,,,*,+1-097-766-1071x296,,,,,
*,Department of Justice,*,*,*,*,Washington,DC,20530-0001,9138940420,,russellbailey@yahoo.com,*,,
*,Department of Health and Human Services,*,FOIA Public Liaison,,,,,,001-574-461-3272,,,,,
*,*,,FOIA Requester Service Center,,,,,,001-528-331-0441x136,,,,,
*,*,*,FOIA Officer,*,*,*,*,*,371.022.1550x84543,001-718-249-4464x34534,caldwellrobert@hotmail.com,*,http://www.doi.gov/foia/foia-request-form.cfm,This office has additional FOIA contact information that can be found by visiting its website.
*,*,*,*,*,*,*,*,*,558.462.1026,+1-535-057-7347x014,,,,
*,Department of Agriculture,*,FOIA Public Liaison,,,,,,987.918.5145,,,,,
*,Department of Justice,,FOIA Requester Service Center,,,,,,(413)055-3319x61554,,,,,
*,Department of Veterans Affairs,*,*,*,"810 Vermont Avenue, NW",Washington,DC,20420,5520452577,344-785-6866x053,,http://www.foia.va.gov/,,
*,*,*,*,*,*,Washington,DC,*,6454207685,379-799-3887x4445,,*,https://www.treasury.gov/foia/pages/gofoia.aspx,
*,Department of Agriculture,*,FOIA Public Liaison,,,,,,(016)511-3222,,,,,
*,Department of Commerce,*,*,*,*,Washington,DC,*,222.811.9714,116.787.8824x47352,smithanthony@yahoo.com,*,,
*,Department of Veterans Affairs,*,FOIA Public Liaison,,,,,,,,,,,
*,Department of Commerce,*,FOIA Officer,*,*,Washington,DC,*,+1-845-844-5716,2529559461,aknight@yahoo.com,*,,
*,Department of Defense,*,FOIA Public Liaison,,,,,,186.419.0156,,reeveselizabeth@hotmail.com,,,
*,Department of Defense,*,FOIA Public Liaison,,,,,,609.805.6447,,adamsfrancisco@gmail.com,,,
*,*,,FOIA Requester Service Center,,,,,,174-761-6971x908,,,,,
*,Department of Defense,,FOIA Requester Service Center,,,,,,(079)977-8757,,,,,
*,Department of Energy,*,FOIA Officer,*,*,*,*,*,4227989012,(271)709-6168x8133,butlercollin@gmail.com,*,*,
*,Department of Justice,,FOIA Requester Service Center,,,,,,(822)866-6190x4616,,,,,
*,Department of Labor ,,FOIA Requester Service Center,,,,,,001-158-004-3309x385,,,,,
*,Department of Defense,,FOIA Requester Service Center,,,,,,452.247.6320,,,,,
*,Department of Defense,*,FOIA Public Liaison,,,,,,777-648-8703,,mitchellsusan@yahoo.com,,,
*,*,*,FOIA Public Liaison,,*,*,*,*,7809874984,001-815-660-0916x325,,*,https://hudpal.efoia-host.com/palMain.aspx,This office has additional FOIA contact information that can be found by visiting its website.
*,*,*,FOIA Public Liaison,*,*,Washington,DC,*,4752673014,(994)307-3038x68724,,,,
*,*,*,*,*,*,*,*,*,(004)097-9095x80490,1256108332,,,,
*,Department of Health and Human Services,*,FOIA Public Liaison,,,,,,(655)213-6250,,,,,
*,Department of Labor ,*,FOIA Public Liaison,,,,,*,,,munozalan@yahoo.com,,,
*,Department of Agriculture,*,FOIA Public Liaison,,,,,*,(251)600-1198,662-620-5073,grahammark@gmail.com,,,
*,Department of Justice,,FOIA Requester Service Center,,,,,,001-739-080-8502x9375,,,,,
*,Department of Health and Human Services,,FOIA Requester Service Center,,,,,,222.998.3868x2508,,,,,
*,Department of Agriculture,*,*,,*,*,*,*,001-389-545-9963,433.905.4127,carmenfox@gmail.com,*,,
*,Department of Transportation,,FOIA Requester Service Center,,,,,,809-104-8445,,,,,
*,Department of Defense,*,*,*,*,*,MD,*,(694)302-5376,400.700.4624x773,jlopez@gmail.com,*,,
*,Department of Defense,,FOIA Requester Service Center,,,,,,251-625-1580,,,,,
*,Department of Justice,*,FOIA Public Liaison,,,,,,(272)168-5490x4107,,hmartin@yahoo.com,,,
*,*,,FOIA Requester Service Center,,,,,,001-555-095-9017x871,,,,,
*,Department of Agriculture,*,*,*,"1400 Independence Avenue, SW",Washington,DC,*,+1-627-878-0809x74675,648-641-7092x798,,*,,This office has additional FOIA contact information that can be found by visiting its website.
*,Department of Defense,*,*,*,*,*,VA,*,+1-185-743-7918x6529,656.958.6104,gmiller@gmail.com,*,,
*,Department of Defense,,FOIA Requester Service Center,,,,,,(949)450-1273,,,,,
*,Department of Transportation,,FOIA Requester Service Center,,,,,,001-095-106-9004x99248,,,,,
*,Department of Homeland Security,*,FOIA Public Liaison,,,,,,(262)332-4436,,,,,
*,*,,FOIA Requester Service Center,,,,,,0874157530,118-689-9171x70286,david74@yahoo.com,*,*,This agency has additional FOIA contact information that can be found by visiting its website.
*,Department of Veterans Affairs,*,FOIA Public Liaison,,,,,,+1-020-258-1443x5483,,,,,
*,*,,FOIA Requester Service Center,,,,,,001-746-322-3646x200,,,,,
*,Department of Veterans Affairs,*,*,*,"810 Vermont Avenue, NW",Washington,DC,20420,418.598.9014x88373,(164)831-3934,glittle@gmail.com,http://www.foia.va.gov/,,
*,Department of Homeland Security,,FOIA Officer,*,*,Washington,DC,*,848-011-5465,(287)079-4470,bullocklisa@hotmail.com,*,,
*,Department of Justice,,FOIA Requester Service Center,,,,,,+1-805-043-4815x4957,,,,,
*,Department of Transportation,*,*,,*,Washington,DC,*,(133)358-6326x2399,001-856-473-1188x291,jason38@gmail.com,*,,
*,Department of Defense,,FOIA Requester Service Center,,,,,,001-530-314-2435x7795,,sanchezmatthew@yahoo.com,,,
*,Department of Labor ,*,FOIA Public Liaison,*,"200 Constitution Avenue, NW",Washington,DC,*,264-886-2573x5615,+1-897-950-9784x1171,william00@hotmail.com,*,,This office has additional FOIA contact information that can be found by visiting its website.
*,Department of Health and Human Services,,FOIA Requester Service Center,,,,,,4541119480,(861)307-8882x777,,,,
*,Department of Veterans Affairs,,FOIA Requester Service Center,,,,,,690.193.1770x85267,762-388-2780x1740,,,,
*,Department of Justice,*,*,*,*,Washington,DC,20530-0001,(615)997-0575x588,001-789-553-3894x17231,,*,http://www.justice.gov/oip/oip-request.html,
*,*,,FOIA Requester Service Center,,,,,,001-010-504-3014x37057,,,,,
*,Department of Homeland Security,*,FOIA Officer,*,*,Washington,DC,*,+1-773-288-6856x23967,(500)206-3326,snyderrandy@yahoo.com,*,,
*,Department of Labor ,*,FOIA Officer,*,"200 Constitution Avenue, NW",Washington,DC,*,+1-948-321-7296x1630,(392)717-4085,,*,,This office has additional FOIA contact information that can be found by visiting its website.
*,Department of Homeland Security,*,FOIA Officer,*,*,Washington,DC,*,489-478-7944x1468,+1-914-007-1544x039,anthonycharles@gmail.com,*,*,
*,Department of Labor ,,FOIA Requester Service Center,,,,,,478-104-6738x4518,,azamora@gmail.com,,,
*,Department of Agriculture,*,FOIA Public Liaison,,,,,,1521623064,,,,,
*,Department of Labor ,*,FOIA Public Liaison,,,,,,+1-089-313-8017x77640,,christopher88@yahoo.com,,,
*,Department of Justice,*,FOIA Public Liaison,,,,,,842.638.1037x43090,,,,,
*,Department of Health and Human Services,*,*,*,*,Washington,*,*,702.793.2249x3877,(321)837-7344x6490,,*,*,
*,Department of Homeland Security,,FOIA Officer,*,*,Washington,DC,*,2774493595,726-944-8985x49018,,*,*,
*,Department of Veterans Affairs,*,FOIA Public Liaison,,,,,,792-242-2392x4276,,,,,
*,Department of Labor ,*,*,*,"200 Constitution Avenue, NW",Washington,DC,*,917-099-3229x40663,(532)935-2373,jeannemosley@gmail.com,*,,This office has additional FOIA contact information that can be found by visiting its website.
*,Department of Agriculture,*,FOIA Public Liaison,*,,,,,001-602-572-9166,,,,,
*,Department of Justice,*,*,*,*,Washington,DC,20530-0001,(317)582-6990x02158,(617)165-7816,,*,http://www.justice.gov/oip/oip-request.html,
*,Department of Veterans Affairs,,FOIA Requester Service Center,,,,,,,,,,,
*,Department of Defense,,FOIA Requester Service Center,,,,,,+1-293-841-3667x186,,,,,
*,Department of Commerce,,FOIA Requester Service Center,,,,,,102-883-2101x00703,,,,,*
*,Department of Justice,*,FOIA Public Liaison,,,,,,250.394.4408,,,,,
*,Department of Veterans Affairs,*,FOIA Public Liaison,,,,DC,,,,,,,
*,Department of Health and Human Services,*,*,,,,,,001-673-020-0151x8714,,,,,
*,Department of Veterans Affairs,*,FOIA Public Liaison,,,,,,656.217.5548x517,,,,,
*,Department of Homeland Security,*,FOIA Requester Service Center,,,,,,969-003-7224x936,,,,,
*,Department of Defense,*,*,*,*,*,*,*,615-854-4587x490,001-239-053-7611,sandovalcarolyn@yahoo.com,*,*,
*,*,*,*,*,*,Washington,DC,*,(044)598-6836,6476326009,,*,https://www.treasury.gov/foia/pages/gofoia.aspx,
*,Department of Veterans Affairs,*,*,*,,Washington,DC,20420,(553)677-9459x3594,263-406-6863,carl06@yahoo.com,http://www.foia.va.gov/,,
*,Department of Energy,*,FOIA Public Liaison,,,,,,,,,,,
*,Department of Labor ,*,FOIA Public Liaison,,,,,,9469831265,,richardjohnson@gmail.com,,,
*,Department of Homeland Security,,FOIA Requester Service Center,,,,,,+1-872-597-8517,,,,,
*,Department of Agriculture,*,FOIA Public Liaison,*,"1400 Independence Avenue, SW",Washington,DC,*,423-672-1802x3914,(393)571-1315x908,fnelson@hotmail.com,,,
*,*,*,FOIA Officer,*,,Washington,DC,*,+1-756-931-4230x1889,001-266-484-3572x470,cheryllong@hotmail.com,*,*,
*,Department of Justice,,FOIA Requester Service Center,,,,,,0148727904,,,,,
*,*,,FOIA Requester Service Center,,,,,,(119)899-8940,,,,,
*,Department of Homeland Security,,FOIA Requester Service Center,,,,,,001-843-497-9878,,,,,
*,Department of Agriculture,*,FOIA Officer,,*,*,*,*,001-075-949-3552x122,896.465.2709,cmoore@gmail.com,*,,
